[{"OBJECT_NAME":"YAOGAN-43 01G","OBJECT_ID":"2024-148G","EPOCH":"2026-03-09T10:38:37.087584","MEAN_MOTION":15.28332833,"ECCENTRICITY":0.00073829,"INCLINATION":35.0006,"RA_OF_ASC_NODE":62.0013,"ARG_OF_PERICENTER":306.3543,"MEAN_ANOMALY":53.6492,"EPHEMERIS_TYPE":0,"CLASSIFICATION_TYPE":"U","NORAD_CAT_ID":60464,"ELEMENT_SET_NO":999,"REV_AT_EPOCH":8700,"BSTAR":0.00035872736,"MEAN_MOTION_DOT":0.00010133,"MEAN_MOTION_DDOT":0},{"OBJECT_NAME":"STARLINK-33619","OBJECT_ID":"2025-057T","EPOCH":"2026-03-09T07:18:21.579552","MEAN_MOTION":15.2759435,"ECCENTRICITY":0.0001968,"INCLINATION":43.0033,"RA_OF_ASC_NODE":32.5765,"ARG_OF_PERICENTER":250.6607,"MEAN_ANOMALY":109.4032,"EPHEMERIS_TYPE":0,"CLASSIFICATION_TYPE":"U","NORAD_CAT_ID":63324,"ELEMENT_SET_NO":999,"REV_AT_EPOCH":5572,"BSTAR":0.00092208149,"MEAN_MOTION_DOT":0.0002521,"MEAN_MOTION_DDOT":0}]
